[{"OBJECT_NAME":"GLOBALSTAR M097","OBJECT_ID":"2013-005A","EPOCH":"2026-03-09T15:03:50.861664","MEAN_MOTION":12.62265747,"ECCENTRICITY":8.73e-5,"INCLINATION":52.0042,"RA_OF_ASC_NODE":186.3995,"ARG_OF_PERICENTER":114.1777,"MEAN_ANOMALY":245.9181,"EPHEMERIS_TYPE":0,"CLASSIFICATION_TYPE":"U","NORAD_CAT_ID":39072,"ELEMENT_SET_NO":999,"REV_AT_EPOCH":60433,"BSTAR":0.00029056,"MEAN_MOTION_DOT":-5.2e-7,"MEAN_MOTION_DDOT":0},{"OBJECT_NAME":"COSMOS 1830","OBJECT_ID":"1987-026D","EPOCH":"2026-03-09T15:42:56.003040","MEAN_MOTION":12.63616808,"ECCENTRICITY":0.0005905,"INCLINATION":82.5563,"RA_OF_ASC_NODE":269.8299,"ARG_OF_PERICENTER":94.9543,"MEAN_ANOMALY":339.1963,"EPHEMERIS_TYPE":0,"CLASSIFICATION_TYPE":"U","NORAD_CAT_ID":17585,"ELEMENT_SET_NO":999,"REV_AT_EPOCH":79807,"BSTAR":9.6966e-5,"MEAN_MOTION_DOT":2.8e-7,"MEAN_MOTION_DDOT":0}]
